    PK11FE3R  2011 03 10.3123  3.733425  0.453371  349.8589  191.0032   16.0105  20130309  14.0  2.0  P/2011 FR143 (Lemmon)                                    MPC 79866
    CK11J020  2013 12 25.2310  3.443643  1.000386   85.2735  163.9403  122.7955  20130309   6.0  4.0  C/2011 J2 (LINEAR)                                       MPEC 2013-E06
    PK11J15B  2012 01 20.6936  5.018216  0.317613  110.8572  153.7385   19.1471  20130309   9.0  4.0  P/2011 JB15 (Spacewatch-Boattini)                        MPC 82317
    CK11K36P  2016 05 27.7046  4.881274  0.872921  180.6175  173.4599   18.9811  20130309   4.5  4.0  C/2011 KP36 (Spacewatch)                                 MPC 80257
    CK11L040  2013 03 10.1696  0.301542  1.000032  333.6518   65.6658   84.2072  20130309   5.5  4.0  C/2011 L4 (PANSTARRS)                                    MPEC 2013-E06
    PK11N010  2012 05 30.3959  2.856331  0.545970  330.8514   77.6732   35.6905  20130309  11.5  4.0  P/2011 N1 (ASH)                                          MPC 82718
    CK11O010  2012 08 18.4434  3.890651  0.996355  232.3793   89.8185   76.4997  20130309   7.0  4.0  C/2011 O1 (LINEAR)                                       MPC 82718
    PK11P010  2010 07 18.1162  5.018760  0.330449  347.9085    5.0317    5.6565  20130309   9.0  4.0  P/2011 P1 (McNaught)                                     MPC 78186
    CK11Q020  2012 01 19.8151  1.350764  1.000468   34.7839  287.2444   36.9738  20130309  10.0  4.0  C/2011 Q2 (McNaught)                                     MPC 79342
    CK11R010  2012 10 19.6172  2.079529  1.000769  308.8588  221.4091  116.1951  20130309   6.5  4.0  C/2011 R1 (McNaught)                                     MPEC 2013-E06
    PK11R030  2012 03 31.5099  3.556392  0.264520  224.9359  190.4596   19.2194  20130309  11.0  4.0  P/2011 R3 (Novichonok-Gerke)                             MPC 82718
    PK11S010  2014 08 22.8815  6.894968  0.203147  193.2943  218.8971    2.6793  20130309   8.0  4.0  P/2011 S1 (Gibbs)                                        MPC 82718
    PK11U010  2012 06 20.7706  2.356350  0.417789  353.1830  135.0031   15.2423  20130309  14.5  4.0  P/2011 U1 (PANSTARRS)                                    MPC 78186
    PK11U020  2012 04 14.9859  4.834293  0.095214  155.8147  266.5188    9.7717  20130309  10.0  4.0  P/2011 U2 (Bressi)                                       MPC 82318
    CK11UU5F  2012 07 22.1682  2.138274  1.000628  121.9978  297.4362   93.9699  20130309   9.0  4.0  C/2011 UF305 (LINEAR)                                    MPEC 2013-E06
    PK11W010  2012 01 22.6813  3.312595  0.287800  282.5240  161.8716    3.7189  20130309  11.5  4.0  P/2011 W1 (PANSTARRS)                                    MPC 82718
    CK11Y030  2011 08 22.8133  3.498656  0.704223  340.6792   84.8039   26.5196  20130309   8.0  4.0  C/2011 Y3 (Boattini)                                     MPC 79342
    CK12A010  2013 11 29.9266  7.603906  1.001527  191.7800  277.9717  120.9019  20130309   6.0  4.0  C/2012 A1 (PANSTARRS)                                    MPC 82718
    CK12A020  2012 11  5.1386  3.537540  0.996450  101.6831  191.4100  125.8663  20130309   8.5  4.0  C/2012 A2 (LINEAR)                                       MPEC 2013-E06
    PK12B010  2013 07 23.1140  3.825230  0.410552  162.1774   36.1950    7.6277  20130309   9.0  4.0  P/2012 B1 (PANSTARRS)                                    MPEC 2013-E06
    CK12B030  2011 12  6.7552  3.536807  1.000571   50.7312  253.0011  106.9330  20130309  10.0  4.0  C/2012 B3 (La Sagra)                                     MPC 82719
    CK12B98J  2012 09 20.4235  2.156525  0.873954   72.9683  124.0274    2.6369  20130309  12.5  4.0  C/2012 BJ98 (Lemmon)                                     MPC 82318
    CK12C010  2013 02  4.5642  4.837970  0.996492  279.8947  300.6373   96.2780  20130309   7.5  4.0  C/2012 C1 (McNaught)                                     MPC 82719
    CK12C17H  2012 09 28.2170  1.296157  0.999857  137.9878  125.9821   27.7448  20130309  11.0  4.0  C/2012 CH17 (MOSS)                                       MPC 81470
    CK12E010  2011 07  3.7818  7.502552  0.997393   48.8832  286.3358  122.5451  20130309   6.5  4.0  C/2012 E1 (Hill)                                         MPC 80258
    CK12E020  2012 03 15.0314  0.006952  1.000000   83.3435    7.7078  144.2218            10.0  4.0  C/2012 E2 (SWAN)                                         MPC 79023
    PK12F020  2013 04  9.9939  2.897094  0.542251   33.1879  227.1346   14.7245  20130309  12.0  4.0  P/2012 F2 (PANSTARRS)                                    MPC 82719
    CK12F030  2015 04  7.1929  3.455237  1.000265  104.0753  164.6322   11.3603  20130309   6.5  4.0  C/2012 F3 (PANSTARRS)                                    MPC 82719
    PK12F050  2015 06 13.8270  2.879240  0.041762  177.7110  216.8627    9.7382  20130309  12.0  4.0  P/2012 F5 (Gibbs)                                        MPC 80045
    CK12F060  2013 03 24.5138  0.731244  0.998533  304.9875  332.7146   82.6078  20130309  10.0  4.0  C/2012 F6 (Lemmon)                                       MPEC 2013-E06
    CK12J010  2012 12  7.2676  3.158740  1.001847  147.2787  235.2182   34.1842  20130309   8.0  4.0  C/2012 J1 (Catalina)                                     MPEC 2013-E06
    CK12K010  2014 08 27.6352  1.055042  1.000312  203.0627  317.7101  142.4248  20130309   4.5  4.0  C/2012 K1 (PANSTARRS)                                    MPEC 2013-E06
    CK12K050  2012 11 28.6848  1.141747  0.998515  139.2853  279.0392   92.8495  20130309  12.0  4.0  C/2012 K5 (LINEAR)                                       MPEC 2013-E06
    CK12K060  2013 05 21.5128  3.353030  0.999513  338.8365  206.8974  135.2210  20130309   8.5  4.0  C/2012 K6 (McNaught)                                     MPC 82719
    CK12K080  2014 08 19.1009  6.464755  1.003155   75.8221  312.7982  106.1075  20130309   6.0  4.0  C/2012 K8 (Lemmon)                                       MPC 82319
    CK12L010  2012 12 25.4128  2.262384  0.997345  140.2881  271.7655   87.2217  20130309  10.5  4.0  C/2012 L1 (LINEAR)                                       MPEC 2013-E06
    CK12L020  2013 05  9.3263  1.508644  0.997420  205.7788  270.3010   70.9820  20130309  10.0  4.0  C/2012 L2 (LINEAR)                                       MPEC 2013-E06
    CK12L26P  2015 08 17.4155  6.533779  0.998536  145.1858  154.0336   25.3759  20130309   6.5  4.0  C/2012 LP26 (Palomar)                                    MPEC 2013-E06
    CK12Q010  2012 02  9.3598  9.482299  0.637032  139.2423  184.4362   45.1844  20130309   4.0  4.0  C/2012 Q1 (Kowalski)                                     MPC 82319
    CK12S010  2013 11 28.7661  0.012486  1.000005  345.5236  295.7143   61.9939  20130309   7.0  3.2  C/2012 S1 (ISON)                                         MPEC 2013-E06
    CK12S030  2013 08 31.1259  2.308027  1.000761  183.7539  121.3080  112.9296  20130309  10.0  4.0  C/2012 S3 (PANSTARRS)                                    MPC 82320
    CK12S040  2013 06 28.0199  4.348684  0.999841  163.6147  173.1039  126.5410  20130309   8.5  4.0  C/2012 S4 (PANSTARRS)                                    MPC 82720
    PK12S06B  2012 11  1.0269  2.406465  0.385024   12.8098    9.5474   10.9874  20130309  14.0  4.0  P/2012 SB6 (Lemmon)                                      MPC 82720
    PK12T020  2013 04 20.3896  4.816877  0.161101  310.3548   73.7523   12.5602  20130309  10.0  4.0  P/2012 T2 (PANSTARRS)                                    MPC 82320
    CK12T040  2012 10 10.8621  1.954183  0.985220  219.8575   99.4253   24.0900  20130309  13.5  4.0  C/2012 T4 (McNaught)                                     MPC 81860
    CK12T050  2013 02 24.0594  0.322813  1.000403  318.0972  230.5937   72.0944  20130309  13.0  4.0  C/2012 T5 (Bressi)                                       MPC 82720
    PK12T08K  2013 05 10.5186  3.091244  0.261515  128.1800  289.7352    6.2948  20130309  13.0  4.0  P/2012 TK8 (Tenagra)                                     MPC 82720
    CK12U010  2014 07  4.5897  5.270815  0.997713   69.9419   26.9908   56.3667  20130309   7.5  4.0  C/2012 U1 (PANSTARRS)                                    MPC 82320
    PK12U020  2012 12  3.8116  3.627542  0.508016  229.5542  186.7583   10.5221  20130309  12.5  4.0  P/2012 U2 (PANSTARRS)                                    MPC 82720
    PK12U27S  2013 02  8.5509  1.820837  0.648668    1.2666   49.2066   39.2915  20130309  13.5  4.0  P/2012 US27 (Siding Spring)                              MPEC 2013-E06
    CK12V010  2013 07 21.4984  2.090118  0.999837  123.3123   85.3795  157.8430  20130309  12.0  4.0  C/2012 V1 (PANSTARRS)                                    MPC 82321
    CK12V020  2013 08 16.5026  1.454759  0.997619  217.3241  262.1631   67.1857  20130309   9.0  4.0  C/2012 V2 (LINEAR)                                       MPEC 2013-E06
    PK12W34A  2013 01 24.5837  3.173336  0.339393  353.1278   94.5231    6.1195  20130309  13.5  4.0  P/2012 WA34 (Lemmon-PANSTARRS)                           MPC 82721
    CK12X010  2014 02 21.6822  1.599464  0.989305  132.1074  113.1421   44.3606  20130309   8.0  4.0  C/2012 X1 (LINEAR)                                       MPEC 2013-E06
    CK12X020  2013 03 31.1786  4.748324  0.770722  215.6139  271.0228   34.1236  20130309   9.0  4.0  C/2012 X2 (PANSTARRS)                                    MPEC 2013-E06
    CK12Y010  2013 01 18.1773  2.016204  0.946700  268.8209  193.2458   20.9596  20130309  15.0  4.0  C/2012 Y1 (LINEAR)                                       MPC 82721
    CK12Y030  2012 08 25.8361  1.764674  0.939785  235.6860  122.7100   73.2308  20130309  11.0  4.0  C/2012 Y3 (McNaught)                                     MPEC 2013-E06
    CK13A010  2014 10 25.5537  1.399705  1.000395    2.4288  300.9679  129.0239  20130309   6.0  4.0  C/2013 A1 (Siding Spring)                                MPEC 2013-E06
